COSMOS 2600             
1 67674U 26023A   26064.92143441  .00077453  00000+0  35615-3 0  9997
2 67674  96.6427 140.6839 0002133 351.0937   9.0296 15.83408727  4458
2026-023B               
1 67675U 26023B   26064.97505782  .00012067  00000+0  51439-3 0  9995
2 67675  96.6359 138.3528 0019361 144.6099 215.6429 15.22889211  4297
2026-023C               
1 67676U 26023C   26064.97362557  .00012674  00000+0  53801-3 0  9996
2 67676  96.6395 138.3759 0020381 135.0734 225.2159 15.22999813  4453
2026-023D               
1 67677U 26023D   26064.97629654  .00011823  00000+0  50485-3 0  9991
2 67677  96.6426 138.3648 0020589 139.8474 220.4291 15.22811645  4280
2026-023E               
1 67678U 26023E   26064.97408156  .00013377  00000+0  56791-3 0  9996
2 67678  96.6319 138.3437 0020347 139.3525 220.9237 15.22987520  4283
2026-023F               
1 67679U 26023F   26064.97143124  .00012012  00000+0  50746-3 0  9997
2 67679  96.6327 140.8442 0022176 134.3340 225.9721 15.23140457  4272
2026-023G               
1 67680U 26023G   26064.97217229  .00014642  00000+0  61795-3 0  9994
2 67680  96.6255 140.8252 0023677 130.8768 229.4528 15.23101076  4273
2026-023H               
1 67681U 26023H   26064.97235501  .00012388  00000+0  52448-3 0  9998
2 67681  96.6401 140.8587 0023781 130.2431 230.0894 15.23025827  4278
2026-023J               
1 67682U 26023J   26064.97110730  .00013015  00000+0  54912-3 0  9991
2 67682  96.6355 140.8623 0023861 127.0604 233.2822 15.23131182  4271
ISS OBJECT XZ           
1 67683U 98067XZ  26063.31738248  .00052289  00000+0  87421-3 0  9993
2 67683  51.6304  98.5346 0009491 167.7937 192.3284 15.51337660  3952
GXIBA-1                 
1 67684U 98067YA  26064.45583860  .00080338  00000+0  12309-2 0  9996
2 67684  51.6299  92.6362 0010970 161.6042 198.5347 15.53561731  4132
CORAL                   
1 67685U 98067YB  26064.34454096  .00046853  00000+0  77286-3 0  9993
2 67685  51.6309  93.3938 0011326 167.4976 192.6297 15.51741434  4113
ISS OBJECT YC           
1 67686U 98067YC  26064.08285944  .00055661  00000+0  90337-3 0  9998
2 67686  51.6311  94.6478 0007743 134.4449 225.7176 15.52157473  4071
LEOPARD                 
1 67687U 98067YD  26064.47497779  .00046527  00000+0  77252-3 0  9995
2 67687  51.6307  92.7649 0007783 140.1506 220.0056 15.51598294  4050
ISS OBJECT YE           
1 67688U 98067YE  26063.50513603  .00064836  00000+0  10599-2 0  9997
2 67688  51.6315  97.5383 0007786 134.7310 225.4314 15.51890022  3906
PRC TEST SPACECRAFT 4   
1 67689U 26024A   26064.94284935  .00000175  00000+0  41179-4 0  9990
2 67689  49.9861  40.3598 0006100 345.7650  14.3118 14.91684420  4024
