[{"OBJECT_NAME":"COSMOS 2600","OBJECT_ID":"2026-023A","EPOCH":"2026-03-05T22:06:51.933024","MEAN_MOTION":15.83408727,"ECCENTRICITY":0.00021337,"INCLINATION":96.6427,"RA_OF_ASC_NODE":140.6839,"ARG_OF_PERICENTER":351.0937,"MEAN_ANOMALY":9.0296,"EPHEMERIS_TYPE":0,"CLASSIFICATION_TYPE":"U","NORAD_CAT_ID":67674,"ELEMENT_SET_NO":999,"REV_AT_EPOCH":445,"BSTAR":0.00035614833,"MEAN_MOTION_DOT":0.00077453,"MEAN_MOTION_DDOT":0},{"OBJECT_NAME":"2026-023B","OBJECT_ID":"2026-023B","EPOCH":"2026-03-05T23:24:04.995648","MEAN_MOTION":15.22889211,"ECCENTRICITY":0.00193619,"INCLINATION":96.6359,"RA_OF_ASC_NODE":138.3528,"ARG_OF_PERICENTER":144.6099,"MEAN_ANOMALY":215.6429,"EPHEMERIS_TYPE":0,"CLASSIFICATION_TYPE":"U","NORAD_CAT_ID":67675,"ELEMENT_SET_NO":999,"REV_AT_EPOCH":429,"BSTAR":0.00051438809,"MEAN_MOTION_DOT":0.00012067,"MEAN_MOTION_DDOT":0},{"OBJECT_NAME":"2026-023C","OBJECT_ID":"2026-023C","EPOCH":"2026-03-05T23:22:01.249248","MEAN_MOTION":15.22999813,"ECCENTRICITY":0.00203814,"INCLINATION":96.6395,"RA_OF_ASC_NODE":138.3759,"ARG_OF_PERICENTER":135.0734,"MEAN_ANOMALY":225.2159,"EPHEMERIS_TYPE":0,"CLASSIFICATION_TYPE":"U","NORAD_CAT_ID":67676,"ELEMENT_SET_NO":999,"REV_AT_EPOCH":445,"BSTAR":0.0005380101,"MEAN_MOTION_DOT":0.00012674,"MEAN_MOTION_DDOT":0},{"OBJECT_NAME":"2026-023D","OBJECT_ID":"2026-023D","EPOCH":"2026-03-05T23:25:52.021056","MEAN_MOTION":15.22811645,"ECCENTRICITY":0.00205895,"INCLINATION":96.6426,"RA_OF_ASC_NODE":138.3648,"ARG_OF_PERICENTER":139.8474,"MEAN_ANOMALY":220.4291,"EPHEMERIS_TYPE":0,"CLASSIFICATION_TYPE":"U","NORAD_CAT_ID":67677,"ELEMENT_SET_NO":999,"REV_AT_EPOCH":428,"BSTAR":0.00050484979,"MEAN_MOTION_DOT":0.00011823,"MEAN_MOTION_DDOT":0},{"OBJECT_NAME":"2026-023E","OBJECT_ID":"2026-023E","EPOCH":"2026-03-05T23:22:40.646784","MEAN_MOTION":15.2298752,"ECCENTRICITY":0.00203477,"INCLINATION":96.6319,"RA_OF_ASC_NODE":138.3437,"ARG_OF_PERICENTER":139.3525,"MEAN_ANOMALY":220.9237,"EPHEMERIS_TYPE":0,"CLASSIFICATION_TYPE":"U","NORAD_CAT_ID":67678,"ELEMENT_SET_NO":999,"REV_AT_EPOCH":428,"BSTAR":0.00056790965,"MEAN_MOTION_DOT":0.00013377,"MEAN_MOTION_DDOT":0},{"OBJECT_NAME":"2026-023F","OBJECT_ID":"2026-023F","EPOCH":"2026-03-05T23:18:51.659136","MEAN_MOTION":15.23140457,"ECCENTRICITY":0.00221761,"INCLINATION":96.6327,"RA_OF_ASC_NODE":140.8442,"ARG_OF_PERICENTER":134.334,"MEAN_ANOMALY":225.9721,"EPHEMERIS_TYPE":0,"CLASSIFICATION_TYPE":"U","NORAD_CAT_ID":67679,"ELEMENT_SET_NO":999,"REV_AT_EPOCH":427,"BSTAR":0.00050745809,"MEAN_MOTION_DOT":0.00012012,"MEAN_MOTION_DDOT":0},{"OBJECT_NAME":"2026-023G","OBJECT_ID":"2026-023G","EPOCH":"2026-03-05T23:19:55.685856","MEAN_MOTION":15.23101076,"ECCENTRICITY":0.00236778,"INCLINATION":96.6255,"RA_OF_ASC_NODE":140.8252,"ARG_OF_PERICENTER":130.8768,"MEAN_ANOMALY":229.4528,"EPHEMERIS_TYPE":0,"CLASSIFICATION_TYPE":"U","NORAD_CAT_ID":67680,"ELEMENT_SET_NO":999,"REV_AT_EPOCH":427,"BSTAR":0.00061794812,"MEAN_MOTION_DOT":0.00014642,"MEAN_MOTION_DDOT":0},{"OBJECT_NAME":"2026-023H","OBJECT_ID":"2026-023H","EPOCH":"2026-03-05T23:20:11.472864","MEAN_MOTION":15.23025827,"ECCENTRICITY":0.00237819,"INCLINATION":96.6401,"RA_OF_ASC_NODE":140.8587,"ARG_OF_PERICENTER":130.2431,"MEAN_ANOMALY":230.0894,"EPHEMERIS_TYPE":0,"CLASSIFICATION_TYPE":"U","NORAD_CAT_ID":67681,"ELEMENT_SET_NO":999,"REV_AT_EPOCH":427,"BSTAR":0.00052447844,"MEAN_MOTION_DOT":0.00012388,"MEAN_MOTION_DDOT":0},{"OBJECT_NAME":"2026-023J","OBJECT_ID":"2026-023J","EPOCH":"2026-03-05T23:18:23.670720","MEAN_MOTION":15.23131182,"ECCENTRICITY":0.00238613,"INCLINATION":96.6355,"RA_OF_ASC_NODE":140.8623,"ARG_OF_PERICENTER":127.0604,"MEAN_ANOMALY":233.2822,"EPHEMERIS_TYPE":0,"CLASSIFICATION_TYPE":"U","NORAD_CAT_ID":67682,"ELEMENT_SET_NO":999,"REV_AT_EPOCH":427,"BSTAR":0.00054912185,"MEAN_MOTION_DOT":0.00013015,"MEAN_MOTION_DDOT":0},{"OBJECT_NAME":"ISS OBJECT XZ","OBJECT_ID":"1998-067XZ","EPOCH":"2026-03-04T07:37:01.846272","MEAN_MOTION":15.5133766,"ECCENTRICITY":0.00094914,"INCLINATION":51.6304,"RA_OF_ASC_NODE":98.5346,"ARG_OF_PERICENTER":167.7937,"MEAN_ANOMALY":192.3284,"EPHEMERIS_TYPE":0,"CLASSIFICATION_TYPE":"U","NORAD_CAT_ID":67683,"ELEMENT_SET_NO":999,"REV_AT_EPOCH":395,"BSTAR":0.00087420501,"MEAN_MOTION_DOT":0.00052289,"MEAN_MOTION_DDOT":0},{"OBJECT_NAME":"GXIBA-1","OBJECT_ID":"1998-067YA","EPOCH":"2026-03-05T10:56:24.455040","MEAN_MOTION":15.53561731,"ECCENTRICITY":0.001097,"INCLINATION":51.6299,"RA_OF_ASC_NODE":92.6362,"ARG_OF_PERICENTER":161.6042,"MEAN_ANOMALY":198.5347,"EPHEMERIS_TYPE":0,"CLASSIFICATION_TYPE":"U","NORAD_CAT_ID":67684,"ELEMENT_SET_NO":999,"REV_AT_EPOCH":413,"BSTAR":0.0012309,"MEAN_MOTION_DOT":0.00080338,"MEAN_MOTION_DDOT":0},{"OBJECT_NAME":"CORAL","OBJECT_ID":"1998-067YB","EPOCH":"2026-03-05T08:16:08.338944","MEAN_MOTION":15.51741434,"ECCENTRICITY":0.0011326,"INCLINATION":51.6309,"RA_OF_ASC_NODE":93.3938,"ARG_OF_PERICENTER":167.4976,"MEAN_ANOMALY":192.6297,"EPHEMERIS_TYPE":0,"CLASSIFICATION_TYPE":"U","NORAD_CAT_ID":67685,"ELEMENT_SET_NO":999,"REV_AT_EPOCH":411,"BSTAR":0.00077286,"MEAN_MOTION_DOT":0.00046853,"MEAN_MOTION_DDOT":0},{"OBJECT_NAME":"ISS OBJECT YC","OBJECT_ID":"1998-067YC","EPOCH":"2026-03-05T01:59:19.055616","MEAN_MOTION":15.52157473,"ECCENTRICITY":0.00077438,"INCLINATION":51.6311,"RA_OF_ASC_NODE":94.6478,"ARG_OF_PERICENTER":134.4449,"MEAN_ANOMALY":225.7176,"EPHEMERIS_TYPE":0,"CLASSIFICATION_TYPE":"U","NORAD_CAT_ID":67686,"ELEMENT_SET_NO":999,"REV_AT_EPOCH":407,"BSTAR":0.00090337252,"MEAN_MOTION_DOT":0.00055661,"MEAN_MOTION_DDOT":0},{"OBJECT_NAME":"LEOPARD","OBJECT_ID":"1998-067YD","EPOCH":"2026-03-05T11:23:58.081056","MEAN_MOTION":15.51598294,"ECCENTRICITY":0.0007783,"INCLINATION":51.6307,"RA_OF_ASC_NODE":92.7649,"ARG_OF_PERICENTER":140.1506,"MEAN_ANOMALY":220.0056,"EPHEMERIS_TYPE":0,"CLASSIFICATION_TYPE":"U","NORAD_CAT_ID":67687,"ELEMENT_SET_NO":999,"REV_AT_EPOCH":405,"BSTAR":0.00077252,"MEAN_MOTION_DOT":0.00046527,"MEAN_MOTION_DDOT":0},{"OBJECT_NAME":"ISS OBJECT YE","OBJECT_ID":"1998-067YE","EPOCH":"2026-03-04T12:07:23.752992","MEAN_MOTION":15.51890022,"ECCENTRICITY":0.00077863,"INCLINATION":51.6315,"RA_OF_ASC_NODE":97.5383,"ARG_OF_PERICENTER":134.731,"MEAN_ANOMALY":225.4314,"EPHEMERIS_TYPE":0,"CLASSIFICATION_TYPE":"U","NORAD_CAT_ID":67688,"ELEMENT_SET_NO":999,"REV_AT_EPOCH":390,"BSTAR":0.0010599088,"MEAN_MOTION_DOT":0.00064836,"MEAN_MOTION_DDOT":0},{"OBJECT_NAME":"PRC TEST SPACECRAFT 4","OBJECT_ID":"2026-024A","EPOCH":"2026-03-05T22:37:42.183840","MEAN_MOTION":14.9168442,"ECCENTRICITY":0.00061008,"INCLINATION":49.9861,"RA_OF_ASC_NODE":40.3598,"ARG_OF_PERICENTER":345.765,"MEAN_ANOMALY":14.3118,"EPHEMERIS_TYPE":0,"CLASSIFICATION_TYPE":"U","NORAD_CAT_ID":67689,"ELEMENT_SET_NO":999,"REV_AT_EPOCH":402,"BSTAR":4.1178595e-5,"MEAN_MOTION_DOT":1.75e-6,"MEAN_MOTION_DDOT":0}]
